[{"OBJECT_NAME":"TYVAK-0130","OBJECT_ID":"2021-041BF","EPOCH":"2026-03-09T11:37:42.710304","MEAN_MOTION":15.26049141,"ECCENTRICITY":0.0008953,"INCLINATION":52.9967,"RA_OF_ASC_NODE":128.603,"ARG_OF_PERICENTER":215.1647,"MEAN_ANOMALY":144.876,"EPHEMERIS_TYPE":0,"CLASSIFICATION_TYPE":"U","NORAD_CAT_ID":48606,"ELEMENT_SET_NO":999,"REV_AT_EPOCH":26515,"BSTAR":0.0003519806,"MEAN_MOTION_DOT":8.857e-5,"MEAN_MOTION_DDOT":0},{"OBJECT_NAME":"STARLINK-31560","OBJECT_ID":"2024-060P","EPOCH":"2026-03-09T13:49:23.248128","MEAN_MOTION":15.27564558,"ECCENTRICITY":0.0001084,"INCLINATION":43.0032,"RA_OF_ASC_NODE":260.65,"ARG_OF_PERICENTER":262.1715,"MEAN_ANOMALY":97.9014,"EPHEMERIS_TYPE":0,"CLASSIFICATION_TYPE":"U","NORAD_CAT_ID":59361,"ELEMENT_SET_NO":999,"REV_AT_EPOCH":11004,"BSTAR":-8.8704e-6,"MEAN_MOTION_DOT":-5.06e-6,"MEAN_MOTION_DDOT":0}]
